{
  "type": "FeatureCollection",
  "features": [
    {
      "type": "Feature",
      "properties": {
        "norad_id": 25590,
        "name": "COSMOS 2361",
        "group": "musson",
        "lat": 77.01978754486596,
        "lon": 15.009018348606645,
        "alt_km": 1002.9637173386072,
        "timestamp": "2025-12-14T22:38:41.027762+00:00",
        "meta_object_name": "COSMOS 2361",
        "meta_object_id": "1998-076A",
        "meta_epoch": "2025-12-14T06:34:20.048160",
        "meta_mean_motion": 13.73217646,
        "meta_eccentricity": 0.00300643,
        "meta_inclination": 82.9341,
        "meta_ra_of_asc_node": 342.9517,
        "meta_arg_of_pericenter": 261.1582,
        "meta_mean_anomaly": 109.1541,
        "meta_ephemeris_type": 0,
        "meta_classification_type": "U",
        "meta_norad_cat_id": 25590,
        "meta_element_set_no": 999,
        "meta_rev_at_epoch": 35132,
        "meta_bstar": 8.2511134e-05,
        "meta_mean_motion_dot": 9.1e-07,
        "meta_mean_motion_ddot": 0,
        "tle_line1": "1 25590U 98076A   25348.27384315  .00000091  00000+0  82511-4 0  9996",
        "tle_line2": "2 25590  82.9341 342.9517 0030064 261.1582 109.1541 13.73217646351324"
      },
      "geometry": {
        "type": "Point",
        "coordinates": [
          15.009018348606645,
          77.01978754486596
        ]
      }
    },
    {
      "type": "Feature",
      "properties": {
        "norad_id": 26818,
        "name": "COSMOS 2378",
        "group": "musson",
        "lat": 20.90533753982816,
        "lon": 175.37288754574416,
        "alt_km": 966.1847913268939,
        "timestamp": "2025-12-14T22:38:41.027783+00:00",
        "meta_object_name": "COSMOS 2378",
        "meta_object_id": "2001-023A",
        "meta_epoch": "2025-12-14T07:57:15.022368",
        "meta_mean_motion": 13.74142101,
        "meta_eccentricity": 0.00325005,
        "meta_inclination": 82.9273,
        "meta_ra_of_asc_node": 358.5446,
        "meta_arg_of_pericenter": 200.3968,
        "meta_mean_anomaly": 172.3316,
        "meta_ephemeris_type": 0,
        "meta_classification_type": "U",
        "meta_norad_cat_id": 26818,
        "meta_element_set_no": 999,
        "meta_rev_at_epoch": 22945,
        "meta_bstar": 5.9573531e-05,
        "meta_mean_motion_dot": 7.1e-07,
        "meta_mean_motion_ddot": 0,
        "tle_line1": "1 26818U 01023A   25348.33142387  .00000071  00000+0  59574-4 0  9995",
        "tle_line2": "2 26818  82.9273 358.5446 0032500 200.3968 172.3316 13.74142101229450"
      },
      "geometry": {
        "type": "Point",
        "coordinates": [
          175.37288754574416,
          20.90533753982816
        ]
      }
    },
    {
      "type": "Feature",
      "properties": {
        "norad_id": 27436,
        "name": "COSMOS 2389",
        "group": "musson",
        "lat": 13.42844263665454,
        "lon": -52.95379807741533,
        "alt_km": 955.6508229946085,
        "timestamp": "2025-12-14T22:38:41.027797+00:00",
        "meta_object_name": "COSMOS 2389",
        "meta_object_id": "2002-026A",
        "meta_epoch": "2025-12-14T07:40:21.284256",
        "meta_mean_motion": 13.75154853,
        "meta_eccentricity": 0.0047575,
        "meta_inclination": 82.9504,
        "meta_ra_of_asc_node": 305.8149,
        "meta_arg_of_pericenter": 56.4524,
        "meta_mean_anomaly": 110.9348,
        "meta_ephemeris_type": 0,
        "meta_classification_type": "U",
        "meta_norad_cat_id": 27436,
        "meta_element_set_no": 999,
        "meta_rev_at_epoch": 18170,
        "meta_bstar": 7.5158673e-05,
        "meta_mean_motion_dot": 8.8e-07,
        "meta_mean_motion_ddot": 0,
        "tle_line1": "1 27436U 02026A   25348.31969079  .00000088  00000+0  75159-4 0  9994",
        "tle_line2": "2 27436  82.9504 305.8149 0047575  56.4524 110.9348 13.75154853181701"
      },
      "geometry": {
        "type": "Point",
        "coordinates": [
          -52.95379807741533,
          13.42844263665454
        ]
      }
    },
    {
      "type": "Feature",
      "properties": {
        "norad_id": 27818,
        "name": "COSMOS 2398",
        "group": "musson",
        "lat": -54.83358942513675,
        "lon": -99.04374096114496,
        "alt_km": 1020.7907019928907,
        "timestamp": "2025-12-14T22:38:41.027808+00:00",
        "meta_object_name": "COSMOS 2398",
        "meta_object_id": "2003-023A",
        "meta_epoch": "2025-12-14T07:44:20.469696",
        "meta_mean_motion": 13.72385914,
        "meta_eccentricity": 0.00326206,
        "meta_inclination": 82.9485,
        "meta_ra_of_asc_node": 271.5319,
        "meta_arg_of_pericenter": 107.542,
        "meta_mean_anomaly": 10.4576,
        "meta_ephemeris_type": 0,
        "meta_classification_type": "U",
        "meta_norad_cat_id": 27818,
        "meta_element_set_no": 999,
        "meta_rev_at_epoch": 12838,
        "meta_bstar": 5.5731544e-05,
        "meta_mean_motion_dot": 6.7e-07,
        "meta_mean_motion_ddot": 0,
        "tle_line1": "1 27818U 03023A   25348.32245914  .00000067  00000+0  55732-4 0  9994",
        "tle_line2": "2 27818  82.9485 271.5319 0032620 107.5420  10.4576 13.72385914128382"
      },
      "geometry": {
        "type": "Point",
        "coordinates": [
          -99.04374096114496,
          -54.83358942513675
        ]
      }
    },
    {
      "type": "Feature",
      "properties": {
        "norad_id": 28380,
        "name": "COSMOS 2407",
        "group": "musson",
        "lat": 7.857918685712702,
        "lon": 30.28400109595733,
        "alt_km": 994.9356975880391,
        "timestamp": "2025-12-14T22:38:41.027819+00:00",
        "meta_object_name": "COSMOS 2407",
        "meta_object_id": "2004-028A",
        "meta_epoch": "2025-12-14T08:41:50.910720",
        "meta_mean_motion": 13.76313877,
        "meta_eccentricity": 0.00402788,
        "meta_inclination": 82.9605,
        "meta_ra_of_asc_node": 211.6914,
        "meta_arg_of_pericenter": 50.436,
        "meta_mean_anomaly": 123.4015,
        "meta_ephemeris_type": 0,
        "meta_classification_type": "U",
        "meta_norad_cat_id": 28380,
        "meta_element_set_no": 999,
        "meta_rev_at_epoch": 7445,
        "meta_bstar": 7.1852042e-05,
        "meta_mean_motion_dot": 8.6e-07,
        "meta_mean_motion_ddot": 0,
        "tle_line1": "1 28380U 04028A   25348.36239480  .00000086  00000+0  71852-4 0  9992",
        "tle_line2": "2 28380  82.9605 211.6914 0040278  50.4360 123.4015 13.76313877 74458"
      },
      "geometry": {
        "type": "Point",
        "coordinates": [
          30.28400109595733,
          7.857918685712702
        ]
      }
    },
    {
      "type": "Feature",
      "properties": {
        "norad_id": 28521,
        "name": "COSMOS 2414",
        "group": "musson",
        "lat": 12.675168366522078,
        "lon": 1.3983628133112482,
        "alt_km": 912.1419195463095,
        "timestamp": "2025-12-14T22:38:41.027830+00:00",
        "meta_object_name": "COSMOS 2414",
        "meta_object_id": "2005-002A",
        "meta_epoch": "2025-12-13T23:21:07.664832",
        "meta_mean_motion": 13.87903085,
        "meta_eccentricity": 0.00409627,
        "meta_inclination": 82.949,
        "meta_ra_of_asc_node": 183.7274,
        "meta_arg_of_pericenter": 136.2149,
        "meta_mean_anomaly": 224.2275,
        "meta_ephemeris_type": 0,
        "meta_classification_type": "U",
        "meta_norad_cat_id": 28521,
        "meta_element_set_no": 999,
        "meta_rev_at_epoch": 5812,
        "meta_bstar": 7.7347599e-05,
        "meta_mean_motion_dot": 1.09e-06,
        "meta_mean_motion_ddot": 0,
        "tle_line1": "1 28521U 05002A   25347.97300538  .00000109  00000+0  77348-4 0  9993",
        "tle_line2": "2 28521  82.9490 183.7274 0040962 136.2149 224.2275 13.87903085 58125"
      },
      "geometry": {
        "type": "Point",
        "coordinates": [
          1.3983628133112482,
          12.675168366522078
        ]
      }
    },
    {
      "type": "Feature",
      "properties": {
        "norad_id": 32052,
        "name": "COSMOS 2429",
        "group": "musson",
        "lat": -19.857325322485643,
        "lon": 164.23446462976784,
        "alt_km": 1014.4360301898187,
        "timestamp": "2025-12-14T22:38:41.027840+00:00",
        "meta_object_name": "COSMOS 2429",
        "meta_object_id": "2007-038A",
        "meta_epoch": "2025-12-14T07:42:26.197056",
        "meta_mean_motion": 13.75149525,
        "meta_eccentricity": 0.00391574,
        "meta_inclination": 82.9804,
        "meta_ra_of_asc_node": 342.1428,
        "meta_arg_of_pericenter": 33.5468,
        "meta_mean_anomaly": 326.8156,
        "meta_ephemeris_type": 0,
        "meta_classification_type": "U",
        "meta_norad_cat_id": 32052,
        "meta_element_set_no": 999,
        "meta_rev_at_epoch": 91624,
        "meta_bstar": 7.8126576e-05,
        "meta_mean_motion_dot": 9.1e-07,
        "meta_mean_motion_ddot": 0,
        "tle_line1": "1 32052U 07038A   25348.32113654  .00000091  00000+0  78127-4 0  9995",
        "tle_line2": "2 32052  82.9804 342.1428 0039157  33.5468 326.8156 13.75149525916248"
      },
      "geometry": {
        "type": "Point",
        "coordinates": [
          164.23446462976784,
          -19.857325322485643
        ]
      }
    },
    {
      "type": "Feature",
      "properties": {
        "norad_id": 35635,
        "name": "COSMOS 2454",
        "group": "musson",
        "lat": -52.666391254091764,
        "lon": -3.695732468829368,
        "alt_km": 950.2890006127045,
        "timestamp": "2025-12-14T22:38:41.027851+00:00",
        "meta_object_name": "COSMOS 2454",
        "meta_object_id": "2009-039A",
        "meta_epoch": "2025-12-14T01:21:42.703200",
        "meta_mean_motion": 13.8992887,
        "meta_eccentricity": 0.00204119,
        "meta_inclination": 82.9553,
        "meta_ra_of_asc_node": 167.6466,
        "meta_arg_of_pericenter": 70.2055,
        "meta_mean_anomaly": 48.1896,
        "meta_ephemeris_type": 0,
        "meta_classification_type": "U",
        "meta_norad_cat_id": 35635,
        "meta_element_set_no": 999,
        "meta_rev_at_epoch": 83168,
        "meta_bstar": 7.8695816e-05,
        "meta_mean_motion_dot": 1.13e-06,
        "meta_mean_motion_ddot": 0,
        "tle_line1": "1 35635U 09039A   25348.05674425  .00000113  00000+0  78696-4 0  9992",
        "tle_line2": "2 35635  82.9553 167.6466 0020411  70.2055  48.1896 13.89928870831686"
      },
      "geometry": {
        "type": "Point",
        "coordinates": [
          -3.695732468829368,
          -52.666391254091764
        ]
      }
    },
    {
      "type": "Feature",
      "properties": {
        "norad_id": 36519,
        "name": "COSMOS 2463",
        "group": "musson",
        "lat": 51.056274470574344,
        "lon": -163.70004101503957,
        "alt_km": 1011.8445746685438,
        "timestamp": "2025-12-14T22:38:41.027861+00:00",
        "meta_object_name": "COSMOS 2463",
        "meta_object_id": "2010-017A",
        "meta_epoch": "2025-12-14T04:49:29.061984",
        "meta_mean_motion": 13.71649249,
        "meta_eccentricity": 0.00347685,
        "meta_inclination": 82.9612,
        "meta_ra_of_asc_node": 25.6389,
        "meta_arg_of_pericenter": 283.8557,
        "meta_mean_anomaly": 140.3023,
        "meta_ephemeris_type": 0,
        "meta_classification_type": "U",
        "meta_norad_cat_id": 36519,
        "meta_element_set_no": 999,
        "meta_rev_at_epoch": 78257,
        "meta_bstar": 4.9449785e-05,
        "meta_mean_motion_dot": 5.9e-07,
        "meta_mean_motion_ddot": 0,
        "tle_line1": "1 36519U 10017A   25348.20103081  .00000059  00000+0  49450-4 0  9999",
        "tle_line2": "2 36519  82.9612  25.6389 0034768 283.8557 140.3023 13.71649249782571"
      },
      "geometry": {
        "type": "Point",
        "coordinates": [
          -163.70004101503957,
          51.056274470574344
        ]
      }
    }
  ]
}